CCSDS_OMM_VERS = 2.0
CREATION_DATE  = 
ORIGINATOR     = 

OBJECT_NAME    = HULIANWANG DIGUI 13A
OBJECT_ID      = 2025-258A
CENTER_NAME    = EARTH
REF_FRAME      = TEME
TIME_SYSTEM    = UTC
MEAN_ELEMENT_THEORY = SGP/SGP4

EPOCH          = 2025-12-04T00:04:39.884160
MEAN_MOTION    = 14.23492331
ECCENTRICITY   = .00140688
INCLINATION    = 50.0041
RA_OF_ASC_NODE = 298.7447
ARG_OF_PERICENTER = 326.8338
MEAN_ANOMALY   = 33.1692

EPHEMERIS_TYPE = 0
CLASSIFICATION_TYPE = U
NORAD_CAT_ID   = 66412
ELEMENT_SET_NO = 999
REV_AT_EPOCH   = 341
BSTAR          = .1212905E-3
MEAN_MOTION_DOT = .119E-5
MEAN_MOTION_DDOT = 0

CCSDS_OMM_VERS = 2.0
CREATION_DATE  = 
ORIGINATOR     = 

OBJECT_NAME    = HULIANWANG DIGUI 13B
OBJECT_ID      = 2025-258B
CENTER_NAME    = EARTH
REF_FRAME      = TEME
TIME_SYSTEM    = UTC
MEAN_ELEMENT_THEORY = SGP/SGP4

EPOCH          = 2025-12-04T00:15:42.227424
MEAN_MOTION    = 14.23483423
ECCENTRICITY   = .0013427
INCLINATION    = 50.0006
RA_OF_ASC_NODE = 298.7744
ARG_OF_PERICENTER = 327.6372
MEAN_ANOMALY   = 32.3716

EPHEMERIS_TYPE = 0
CLASSIFICATION_TYPE = U
NORAD_CAT_ID   = 66413
ELEMENT_SET_NO = 999
REV_AT_EPOCH   = 341
BSTAR          = .13084392E-3
MEAN_MOTION_DOT = .14E-5
MEAN_MOTION_DDOT = 0

CCSDS_OMM_VERS = 2.0
CREATION_DATE  = 
ORIGINATOR     = 

OBJECT_NAME    = HULIANWANG DIGUI 13C
OBJECT_ID      = 2025-258C
CENTER_NAME    = EARTH
REF_FRAME      = TEME
TIME_SYSTEM    = UTC
MEAN_ELEMENT_THEORY = SGP/SGP4

EPOCH          = 2025-12-04T00:11:08.736000
MEAN_MOTION    = 14.23508968
ECCENTRICITY   = .00136036
INCLINATION    = 50.0047
RA_OF_ASC_NODE = 298.7734
ARG_OF_PERICENTER = 325.8893
MEAN_ANOMALY   = 34.1145

EPHEMERIS_TYPE = 0
CLASSIFICATION_TYPE = U
NORAD_CAT_ID   = 66414
ELEMENT_SET_NO = 999
REV_AT_EPOCH   = 341
BSTAR          = .14554892E-3
MEAN_MOTION_DOT = .174E-5
MEAN_MOTION_DDOT = 0

CCSDS_OMM_VERS = 2.0
CREATION_DATE  = 
ORIGINATOR     = 

OBJECT_NAME    = HULIANWANG DIGUI 13D
OBJECT_ID      = 2025-258D
CENTER_NAME    = EARTH
REF_FRAME      = TEME
TIME_SYSTEM    = UTC
MEAN_ELEMENT_THEORY = SGP/SGP4

EPOCH          = 2025-12-04T00:02:38.227776
MEAN_MOTION    = 14.23497397
ECCENTRICITY   = .00133344
INCLINATION    = 50.0039
RA_OF_ASC_NODE = 298.7379
ARG_OF_PERICENTER = 332.4989
MEAN_ANOMALY   = 27.5217

EPHEMERIS_TYPE = 0
CLASSIFICATION_TYPE = U
NORAD_CAT_ID   = 66415
ELEMENT_SET_NO = 999
REV_AT_EPOCH   = 341
BSTAR          = .15515174E-3
MEAN_MOTION_DOT = .196E-5
MEAN_MOTION_DDOT = 0

CCSDS_OMM_VERS = 2.0
CREATION_DATE  = 
ORIGINATOR     = 

OBJECT_NAME    = HULIANWANG DIGUI 13E
OBJECT_ID      = 2025-258E
CENTER_NAME    = EARTH
REF_FRAME      = TEME
TIME_SYSTEM    = UTC
MEAN_ELEMENT_THEORY = SGP/SGP4

EPOCH          = 2025-12-02T04:20:20.565312
MEAN_MOTION    = 14.23468154
ECCENTRICITY   = .0012751
INCLINATION    = 50.0045
RA_OF_ASC_NODE = 306.4445
ARG_OF_PERICENTER = 327.4493
MEAN_ANOMALY   = 32.5632

EPHEMERIS_TYPE = 0
CLASSIFICATION_TYPE = U
NORAD_CAT_ID   = 66416
ELEMENT_SET_NO = 999
REV_AT_EPOCH   = 315
BSTAR          = .10445686E-3
MEAN_MOTION_DOT = .8E-6
MEAN_MOTION_DDOT = 0

CCSDS_OMM_VERS = 2.0
CREATION_DATE  = 
ORIGINATOR     = 

OBJECT_NAME    = HULIANWANG DIGUI 13F
OBJECT_ID      = 2025-258F
CENTER_NAME    = EARTH
REF_FRAME      = TEME
TIME_SYSTEM    = UTC
MEAN_ELEMENT_THEORY = SGP/SGP4

EPOCH          = 2025-12-04T00:06:47.750976
MEAN_MOTION    = 14.23478038
ECCENTRICITY   = .00123539
INCLINATION    = 49.9996
RA_OF_ASC_NODE = 298.7354
ARG_OF_PERICENTER = 331.9659
MEAN_ANOMALY   = 28.0587

EPHEMERIS_TYPE = 0
CLASSIFICATION_TYPE = U
NORAD_CAT_ID   = 66417
ELEMENT_SET_NO = 999
REV_AT_EPOCH   = 341
BSTAR          = .15360842E-3
MEAN_MOTION_DOT = .192E-5
MEAN_MOTION_DDOT = 0

CCSDS_OMM_VERS = 2.0
CREATION_DATE  = 
ORIGINATOR     = 

OBJECT_NAME    = HULIANWANG DIGUI 13G
OBJECT_ID      = 2025-258G
CENTER_NAME    = EARTH
REF_FRAME      = TEME
TIME_SYSTEM    = UTC
MEAN_ELEMENT_THEORY = SGP/SGP4

EPOCH          = 2025-12-04T00:00:45.067104
MEAN_MOTION    = 14.23489611
ECCENTRICITY   = .00124642
INCLINATION    = 50.0013
RA_OF_ASC_NODE = 298.7141
ARG_OF_PERICENTER = 327.8506
MEAN_ANOMALY   = 32.1645

EPHEMERIS_TYPE = 0
CLASSIFICATION_TYPE = U
NORAD_CAT_ID   = 66418
ELEMENT_SET_NO = 999
REV_AT_EPOCH   = 341
BSTAR          = .1538293E-3
MEAN_MOTION_DOT = .193E-5
MEAN_MOTION_DDOT = 0

CCSDS_OMM_VERS = 2.0
CREATION_DATE  = 
ORIGINATOR     = 

OBJECT_NAME    = HULIANWANG DIGUI 13H
OBJECT_ID      = 2025-258H
CENTER_NAME    = EARTH
REF_FRAME      = TEME
TIME_SYSTEM    = UTC
MEAN_ELEMENT_THEORY = SGP/SGP4

EPOCH          = 2025-12-03T23:58:36.617088
MEAN_MOTION    = 14.23506726
ECCENTRICITY   = .00121226
INCLINATION    = 50.0008
RA_OF_ASC_NODE = 298.7034
ARG_OF_PERICENTER = 329.1039
MEAN_ANOMALY   = 30.9159

EPHEMERIS_TYPE = 0
CLASSIFICATION_TYPE = U
NORAD_CAT_ID   = 66419
ELEMENT_SET_NO = 999
REV_AT_EPOCH   = 341
BSTAR          = .15047502E-3
MEAN_MOTION_DOT = .185E-5
MEAN_MOTION_DDOT = 0

CCSDS_OMM_VERS = 2.0
CREATION_DATE  = 
ORIGINATOR     = 

OBJECT_NAME    = HULIANWANG DIGUI 13J
OBJECT_ID      = 2025-258J
CENTER_NAME    = EARTH
REF_FRAME      = TEME
TIME_SYSTEM    = UTC
MEAN_ELEMENT_THEORY = SGP/SGP4

EPOCH          = 2025-12-03T23:56:57.746112
MEAN_MOTION    = 14.23474226
ECCENTRICITY   = .00114469
INCLINATION    = 50.0022
RA_OF_ASC_NODE = 298.7077
ARG_OF_PERICENTER = 336.0431
MEAN_ANOMALY   = 23.9948

EPHEMERIS_TYPE = 0
CLASSIFICATION_TYPE = U
NORAD_CAT_ID   = 66420
ELEMENT_SET_NO = 999
REV_AT_EPOCH   = 340
BSTAR          = .1473895E-3
MEAN_MOTION_DOT = .178E-5
MEAN_MOTION_DDOT = 0

CCSDS_OMM_VERS = 2.0
CREATION_DATE  = 
ORIGINATOR     = 

OBJECT_NAME    = CZ-12 R/B
OBJECT_ID      = 2025-258K
CENTER_NAME    = EARTH
REF_FRAME      = TEME
TIME_SYSTEM    = UTC
MEAN_ELEMENT_THEORY = SGP/SGP4

EPOCH          = 2025-12-03T23:45:48.036384
MEAN_MOTION    = 14.42316700
ECCENTRICITY   = .00645689
INCLINATION    = 49.9964
RA_OF_ASC_NODE = 295.9130
ARG_OF_PERICENTER = 217.9673
MEAN_ANOMALY   = 141.6687

EPHEMERIS_TYPE = 0
CLASSIFICATION_TYPE = U
NORAD_CAT_ID   = 66421
ELEMENT_SET_NO = 999
REV_AT_EPOCH   = 345
BSTAR          = .40078124E-4
MEAN_MOTION_DOT = -.34E-6
MEAN_MOTION_DDOT = 0

CCSDS_OMM_VERS = 2.0
CREATION_DATE  = 
ORIGINATOR     = 

OBJECT_NAME    = STARLINK-35617
OBJECT_ID      = 2025-259A
CENTER_NAME    = EARTH
REF_FRAME      = TEME
TIME_SYSTEM    = UTC
MEAN_ELEMENT_THEORY = SGP/SGP4

EPOCH          = 2025-12-03T22:00:03.000096
MEAN_MOTION    = 15.45738272
ECCENTRICITY   = .00012902
INCLINATION    = 43.0004
RA_OF_ASC_NODE = 98.9709
ARG_OF_PERICENTER = 274.9440
MEAN_ANOMALY   = 343.4445

EPHEMERIS_TYPE = 0
CLASSIFICATION_TYPE = U
NORAD_CAT_ID   = 66422
ELEMENT_SET_NO = 999
REV_AT_EPOCH   = 486
BSTAR          = -.46341778E-1
MEAN_MOTION_DOT = -.2041801E-1
MEAN_MOTION_DDOT = 0

CCSDS_OMM_VERS = 2.0
CREATION_DATE  = 
ORIGINATOR     = 

OBJECT_NAME    = STARLINK-35618
OBJECT_ID      = 2025-259B
CENTER_NAME    = EARTH
REF_FRAME      = TEME
TIME_SYSTEM    = UTC
MEAN_ELEMENT_THEORY = SGP/SGP4

EPOCH          = 2025-12-03T22:00:03.000096
MEAN_MOTION    = 15.47092663
ECCENTRICITY   = .00015957
INCLINATION    = 43.0002
RA_OF_ASC_NODE = 98.9549
ARG_OF_PERICENTER = 270.1424
MEAN_ANOMALY   = 354.5986

EPHEMERIS_TYPE = 0
CLASSIFICATION_TYPE = U
NORAD_CAT_ID   = 66423
ELEMENT_SET_NO = 999
REV_AT_EPOCH   = 486
BSTAR          = -.45159064E-1
MEAN_MOTION_DOT = -.2081178E-1
MEAN_MOTION_DDOT = 0

