HULIANWANG DIGUI 13A    
1 66412U 25258A   25338.00323940  .00000119  00000+0  12129-3 0  9991
2 66412  50.0041 298.7447 0014068 326.8338  33.1692 14.23492331  3418
HULIANWANG DIGUI 13B    
1 66413U 25258B   25338.01090541  .00000140  00000+0  13084-3 0  9996
2 66413  50.0006 298.7744 0013427 327.6372  32.3716 14.23483423  3415
HULIANWANG DIGUI 13C    
1 66414U 25258C   25338.00774000  .00000174  00000+0  14555-3 0  9996
2 66414  50.0047 298.7734 0013603 325.8893  34.1145 14.23508968  3412
HULIANWANG DIGUI 13D    
1 66415U 25258D   25338.00183134  .00000196  00000+0  15515-3 0  9990
2 66415  50.0039 298.7379 0013334 332.4989  27.5217 14.23497397  3419
HULIANWANG DIGUI 13E    
1 66416U 25258E   25336.18079358  .00000080  00000+0  10446-3 0  9990
2 66416  50.0045 306.4445 0012751 327.4493  32.5632 14.23468154  3151
HULIANWANG DIGUI 13F    
1 66417U 25258F   25338.00471934  .00000192  00000+0  15361-3 0  9995
2 66417  49.9996 298.7354 0012353 331.9659  28.0587 14.23478038  3418
HULIANWANG DIGUI 13G    
1 66418U 25258G   25338.00052161  .00000193  00000+0  15383-3 0  9998
2 66418  50.0013 298.7141 0012464 327.8506  32.1645 14.23489611  3414
HULIANWANG DIGUI 13H    
1 66419U 25258H   25337.99903492  .00000185  00000+0  15048-3 0  9997
2 66419  50.0008 298.7034 0012122 329.1039  30.9159 14.23506726  3410
HULIANWANG DIGUI 13J    
1 66420U 25258J   25337.99789058  .00000178  00000+0  14739-3 0  9997
2 66420  50.0022 298.7077 0011446 336.0431  23.9948 14.23474226  3402
CZ-12 R/B               
1 66421U 25258K   25337.99013931 -.00000034  00000+0  40078-4 0  9996
2 66421  49.9964 295.9130 0064568 217.9673 141.6687 14.42316700  3458
STARLINK-35617          
1 66422U 25259A   25337.91670139 -.02041801  00000+0 -46342-1 0  9996
2 66422  43.0004  98.9709 0001290 274.9440 343.4445 15.45738272  4866
STARLINK-35618          
1 66423U 25259B   25337.91670139 -.02081178  00000+0 -45159-1 0  9993
2 66423  43.0002  98.9549 0001595 270.1424 354.5986 15.47092663  4867
